[{
  "user_id": 5,
  "positive": false,
  "comment": "Synergized",
  "image": "http://dummyimage.com/100x100.jpg/5fa2dd/ffffff",
  "latitude": "40.8563",
  "longitude": "14.2464",
  "zipcode": 37214,
  "area_name": "Donelson",
  "zone" : 2
}, {
  "user_id": 8,
  "positive": false,
  "comment": "success",
  "image": "http://dummyimage.com/100x100.jpg/ff4444/ffffff",
  "latitude": "40.0167",
  "longitude": "-8.7167",
  "zipcode": 37206,
  "area_name": "East Nashville",
  "zone" : 2
}, {
  "user_id": 10,
  "positive": true,
  "comment": "protocol",
  "image": "http://dummyimage.com/100x100.jpg/5fa2dd/ffffff",
  "latitude": "30.73059",
  "longitude": "114.11744",
  "zipcode": 37206,
  "area_name": "East Nashville",
  "zone" : 2
}, {
  "user_id": 4,
  "positive": false,
  "comment": "Advanced",
  "image": "http://dummyimage.com/100x100.jpg/ff4444/ffffff",
  "latitude": "66.08333",
  "longitude": "76.63333",
  "zipcode": 37206,
  "area_name": "East Nashville",
  "zone" : 2
}, {
  "user_id": 4,
  "positive": false,
  "comment": "Devolved",
  "image": "http://dummyimage.com/100x100.jpg/ff4444/ffffff",
  "latitude": "27.0775",
  "longitude": "111.01944",
  "zipcode": 37211,
  "area_name": "South Nashville",
  "zone" : 3
}, {
  "user_id": 4,
  "positive": false,
  "comment": "asynchronous",
  "image": "http://dummyimage.com/100x100.jpg/cc0000/ffffff",
  "latitude": "10.692",
  "longitude": "123.0608",
  "zipcode": 37211,
  "area_name": "South Nashville",
  "zone" : 3
}, {
  "user_id": 5,
  "positive": true,
  "comment": "Profit-focused",
  "image": "http://dummyimage.com/100x100.jpg/ff4444/ffffff",
  "latitude": "30.53333",
  "longitude": "114.61667",
  "zipcode": 37204,
  "area_name": "12 South, Berry Hill, Waverly",
  "zone" : 3
}, {
  "user_id": 2,
  "positive": true,
  "comment": "Synchronised",
  "image": "http://dummyimage.com/100x100.jpg/ff4444/ffffff",
  "latitude": "19.1661",
  "longitude": "-100.0533",
  "zipcode": 37204,
  "area_name": "12 South, Berry Hill, Waverly",
  "zone" : 3
}, {
  "user_id": 5,
  "positive": true,
  "comment": "throughput",
  "image": "http://dummyimage.com/100x100.jpg/5fa2dd/ffffff",
  "latitude": "13.73417",
  "longitude": "-89.71472",
  "zipcode": 37204,
  "area_name": "12 South, Berry Hill, Waverly",
  "zone" : 3
}, {
  "user_id": 7,
  "positive": false,
  "comment": "monitoring",
  "image": "http://dummyimage.com/100x100.jpg/dddddd/000000",
  "latitude": "-7.0637",
  "longitude": "108.4705",
  "zipcode": 37215,
  "area_name": "Green Hills",
  "zone" : 3
}, {
  "user_id": 9,
  "positive": false,
  "comment": "data-warehouse",
  "image": "http://dummyimage.com/100x100.jpg/ff4444/ffffff",
  "latitude": "30.14111",
  "longitude": "-8.37221",
  "zipcode": 37215,
  "area_name": "Green Hills",
  "zone" : 3
}, {
  "user_id": 2,
  "positive": false,
  "comment": "Balanced",
  "image": "http://dummyimage.com/100x100.jpg/5fa2dd/ffffff",
  "latitude": "49.00167",
  "longitude": "17.28476",
  "zipcode": 37201,
  "area_name": "Downtown",
  "zone" : 1
}, {
  "user_id": 4,
  "positive": true,
  "comment": "Robust",
  "image": "http://dummyimage.com/100x100.jpg/ff4444/ffffff",
  "latitude": "39.65361",
  "longitude": "113.84194",
  "zipcode": 37201,
  "area_name": "Downtown",
  "zone" : 1
}, {
  "user_id": 5,
  "positive": true,
  "comment": "Synchronised",
  "image": "http://dummyimage.com/100x100.jpg/dddddd/000000",
  "latitude": "47.5833",
  "longitude": "1.3333",
  "zipcode": 37201,
  "area_name": "Downtown",
  "zone" : 1
}, {
  "user_id": 4,
  "positive": false,
  "comment": "incremental",
  "image": "http://dummyimage.com/100x100.jpg/ff4444/ffffff",
  "latitude": "28.54657",
  "longitude": "68.22308",
  "zipcode": 37201,
  "area_name": "Downtown",
  "zone" : 1
}, {
  "user_id": 7,
  "positive": false,
  "comment": "circuit",
  "image": "http://dummyimage.com/100x100.jpg/ff4444/ffffff",
  "latitude": "29.91257",
  "longitude": "118.64387",
  "zipcode": 37201,
  "area_name": "Downtown",
  "zone" : 1
}, {
  "user_id": 4,
  "positive": true,
  "comment": "mobile",
  "image": "http://dummyimage.com/100x100.jpg/cc0000/ffffff",
  "latitude": "50.293",
  "longitude": "2.7819",
  "zipcode": 37208,
  "area_name": "Germantown",
  "zone" : 1
}, {
  "user_id": 2,
  "positive": true,
  "comment": "Public-key",
  "image": "http://dummyimage.com/100x100.jpg/5fa2dd/ffffff",
  "latitude": "45.5356",
  "longitude": "10.2147",
  "zipcode": 37208,
  "area_name": "Germantown",
  "zone" : 1
}, {
  "user_id": 6,
  "positive": true,
  "comment": "modular",
  "image": "http://dummyimage.com/100x100.jpg/ff4444/ffffff",
  "latitude": "20.9897",
  "longitude": "-101.8614",
  "zipcode": 37208,
  "area_name": "Germantown",
  "zone" : 1
}, {
  "user_id": 8,
  "positive": false,
  "comment": "zero administration",
  "image": "http://dummyimage.com/100x100.jpg/5fa2dd/ffffff",
  "latitude": "32.3116",
  "longitude": "106.81985",
  "zipcode": 37209,
  "area_name": "West Nashville",
  "zone" : 4
}, {
  "user_id": 6,
  "positive": false,
  "comment": "Visionary",
  "image": "http://dummyimage.com/100x100.jpg/dddddd/000000",
  "latitude": "24.75563",
  "longitude": "113.58185",
  "zipcode": 37209,
  "area_name": "West Nashville",
  "zone" : 4
}, {
  "user_id": 8,
  "positive": true,
  "comment": "incremental",
  "image": "http://dummyimage.com/100x100.jpg/ff4444/ffffff",
  "latitude": "27.76344",
  "longitude": "98.71105",
  "zipcode": 37209,
  "area_name": "West Nashville",
  "zone" : 4
}, {
  "user_id": 9,
  "positive": false,
  "comment": "moderator",
  "image": "http://dummyimage.com/100x100.jpg/ff4444/ffffff",
  "latitude": "-0.61258",
  "longitude": "100.64788",
  "zipcode": 37209,
  "area_name": "West Nashville",
  "zone" : 4
}, {
  "user_id": 6,
  "positive": false,
  "comment": "contextually-based",
  "image": "http://dummyimage.com/100x100.jpg/ff4444/ffffff",
  "latitude": "55.58333",
  "longitude": "37.6",
  "zipcode": 37209,
  "area_name": "West Nashville",
  "zone" : 4
}, {
  "user_id": 3,
  "positive": true,
  "comment": "Managed",
  "image": "http://dummyimage.com/100x100.jpg/5fa2dd/ffffff",
  "latitude": "48.46852",
  "longitude": "116.4618",
  "zipcode": 37209,
  "area_name": "West Nashville",
  "zone" : 4
}, {
  "user_id": 2,
  "positive": true,
  "comment": "actuating",
  "image": "http://dummyimage.com/100x100.jpg/ff4444/ffffff",
  "latitude": "-7.1637",
  "longitude": "108.8172",
  "zipcode": 37209,
  "area_name": "West Nashville",
  "zone" : 4
}, {
  "user_id": 10,
  "positive": false,
  "comment": "high-level",
  "image": "http://dummyimage.com/100x100.jpg/cc0000/ffffff",
  "latitude": "28.26829",
  "longitude": "117.42458",
  "zipcode": 37206,
  "area_name": "East Nashville",
  "zone" : 2
}, {
  "user_id": 1,
  "positive": true,
  "comment": "info-mediaries",
  "image": "http://dummyimage.com/100x100.jpg/cc0000/ffffff",
  "latitude": "29.834",
  "longitude": "-95.4342",
  "zipcode": 37206,
  "area_name": "East Nashville",
  "zone" : 2
}, {
  "user_id": 10,
  "positive": false,
  "comment": "data-warehouse",
  "image": "http://dummyimage.com/100x100.jpg/ff4444/ffffff",
  "latitude": "48.81082",
  "longitude": "14.25859",
  "zipcode": 37206,
  "area_name": "East Nashville",
  "zone" : 2
}, {
  "user_id": 8,
  "positive": true,
  "comment": "homogeneous",
  "image": "http://dummyimage.com/100x100.jpg/5fa2dd/ffffff",
  "latitude": "10.68966",
  "longitude": "122.3193",
  "zipcode": 37206,
  "area_name": "East Nashville",
  "zone" : 2
}, {
  "user_id": 1,
  "positive": false,
  "comment": "Customer-focused",
  "image": "http://dummyimage.com/100x100.jpg/cc0000/ffffff",
  "latitude": "50.5659",
  "longitude": "20.05563",
  "zipcode": 37204,
  "area_name": "12 South, Berry Hill, Waverly",
  "zone" : 3
}, {
  "user_id": 7,
  "positive": false,
  "comment": "contextually-based",
  "image": "http://dummyimage.com/100x100.jpg/5fa2dd/ffffff",
  "latitude": "17.0187",
  "longitude": "8.0168",
  "zipcode": 37204,
  "area_name": "12 South, Berry Hill, Waverly",
  "zone" : 3
}, {
  "user_id": 7,
  "positive": true,
  "comment": "implementation",
  "image": "http://dummyimage.com/100x100.jpg/ff4444/ffffff",
  "latitude": "56.41349",
  "longitude": "37.6218",
  "zipcode": 37204,
  "area_name": "12 South, Berry Hill, Waverly",
  "zone" : 3
}, {
  "user_id": 1,
  "positive": true,
  "comment": "Grass-roots",
  "image": "http://dummyimage.com/100x100.jpg/5fa2dd/ffffff",
  "latitude": "62.5",
  "longitude": "25.45",
  "zipcode": 37204,
  "area_name": "12 South, Berry Hill, Waverly",
  "zone" : 3
}, {
  "user_id": 7,
  "positive": false,
  "comment": "Pre-emptive",
  "image": "http://dummyimage.com/100x100.jpg/5fa2dd/ffffff",
  "latitude": "-34.36667",
  "longitude": "-57.06667",
  "zipcode": 37204,
  "area_name": "12 South, Berry Hill, Waverly",
  "zone" : 3
}, {
  "user_id": 7,
  "positive": false,
  "comment": "Assimilated",
  "image": "http://dummyimage.com/100x100.jpg/5fa2dd/ffffff",
  "latitude": "38.46613",
  "longitude": "68.80533",
  "zipcode": 37204,
  "area_name": "12 South, Berry Hill, Waverly",
  "zone" : 3
}, {
  "user_id": 6,
  "positive": true,
  "comment": "3rd generation",
  "image": "http://dummyimage.com/100x100.jpg/5fa2dd/ffffff",
  "latitude": "30.6713",
  "longitude": "31.58801",
  "zipcode": 37204,
  "area_name": "12 South, Berry Hill, Waverly",
  "zone" : 3
}, {
  "user_id": 5,
  "positive": true,
  "comment": "Expanded",
  "image": "http://dummyimage.com/100x100.jpg/cc0000/ffffff",
  "latitude": "-10.73833",
  "longitude": "-37.81111",
  "zipcode": 37208,
  "area_name": "Germantown",
  "zone" : 1
}, {
  "user_id": 10,
  "positive": true,
  "comment": "circuit",
  "image": "http://dummyimage.com/100x100.jpg/5fa2dd/ffffff",
  "latitude": "7.12825",
  "longitude": "124.68912",
  "zipcode": 37208,
  "area_name": "Germantown",
  "zone" : 1
}, {
  "user_id": 1,
  "positive": true,
  "comment": "core",
  "image": "http://dummyimage.com/100x100.jpg/ff4444/ffffff",
  "latitude": "31.13232",
  "longitude": "64.1934",
  "zipcode": 37208,
  "area_name": "Germantown",
  "zone" : 1
}, {
  "user_id": 3,
  "positive": true,
  "comment": "logistical",
  "image": "http://dummyimage.com/100x100.jpg/cc0000/ffffff",
  "latitude": "23.27628",
  "longitude": "115.71165",
  "zipcode": 37208,
  "area_name": "Germantown",
  "zone" : 1
}, {
  "user_id": 8,
  "positive": true,
  "comment": "bi-directional",
  "image": "http://dummyimage.com/100x100.jpg/cc0000/ffffff",
  "latitude": "50.34349",
  "longitude": "17.99097",
  "zipcode": 37208,
  "area_name": "Germantown",
  "zone" : 1
}, {
  "user_id": 2,
  "positive": true,
  "comment": "incremental",
  "image": "http://dummyimage.com/100x100.jpg/cc0000/ffffff",
  "latitude": "13.18179",
  "longitude": "44.29966",
  "zipcode": 37208,
  "area_name": "Germantown",
  "zone" : 1
}, {
  "user_id": 1,
  "positive": true,
  "comment": "Intuitive",
  "image": "http://dummyimage.com/100x100.jpg/ff4444/ffffff",
  "latitude": "49.25",
  "longitude": "4.0333",
  "zipcode": 37201,
  "area_name": "Downtown",
  "zone" : 1
}, {
  "user_id": 1,
  "positive": true,
  "comment": "local area network",
  "image": "http://dummyimage.com/100x100.jpg/dddddd/000000",
  "latitude": "63.8284",
  "longitude": "20.2597",
  "zipcode": 37201,
  "area_name": "Downtown",
  "zone" : 1
}, {
  "user_id": 4,
  "positive": false,
  "comment": "solution",
  "image": "http://dummyimage.com/100x100.jpg/dddddd/000000",
  "latitude": "33.22952",
  "longitude": "113.44726",
  "zipcode": 37201,
  "area_name": "Downtown",
  "zone" : 1
}, {
  "user_id": 8,
  "positive": false,
  "comment": "Stand-alone",
  "image": "http://dummyimage.com/100x100.jpg/5fa2dd/ffffff",
  "latitude": "52.19446",
  "longitude": "20.69592",
  "zipcode": 37203,
  "area_name": "Midtown",
  "zone" : 4
}, {
  "user_id": 10,
  "positive": true,
  "comment": "human-resource",
  "image": "http://dummyimage.com/100x100.jpg/5fa2dd/ffffff",
  "latitude": "29.51066",
  "longitude": "106.98577",
  "zipcode": 37203,
  "area_name": "Midtown",
  "zone" : 4
}, {
  "user_id": 8,
  "positive": false,
  "comment": "Centralized",
  "image": "http://dummyimage.com/100x100.jpg/5fa2dd/ffffff",
  "latitude": "28.5663",
  "longitude": "-81.2608",
  "zipcode": 37203,
  "area_name": "Midtown",
  "zone" : 4
}, {
  "user_id": 7,
  "positive": true,
  "comment": "logistical",
  "image": "http://dummyimage.com/100x100.jpg/5fa2dd/ffffff",
  "latitude": "27.78396",
  "longitude": "114.55212",
  "zipcode": 37203,
  "area_name": "Midtown",
  "zone" : 4
}]
